[{"OBJECT_NAME":"STARLINK-31801","OBJECT_ID":"2024-082S","EPOCH":"2026-03-09T05:04:30.581184","MEAN_MOTION":15.27548792,"ECCENTRICITY":7.635e-5,"INCLINATION":43.0017,"RA_OF_ASC_NODE":142.9476,"ARG_OF_PERICENTER":260.5473,"MEAN_ANOMALY":99.5293,"EPHEMERIS_TYPE":0,"CLASSIFICATION_TYPE":"U","NORAD_CAT_ID":59647,"ELEMENT_SET_NO":999,"REV_AT_EPOCH":10478,"BSTAR":0.00026306921,"MEAN_MOTION_DOT":6.977e-5,"MEAN_MOTION_DDOT":0},{"OBJECT_NAME":"CP8 (IPEX)","OBJECT_ID":"2013-072K","EPOCH":"2026-03-09T13:09:38.394720","MEAN_MOTION":15.06461805,"ECCENTRICITY":0.0159394,"INCLINATION":120.4656,"RA_OF_ASC_NODE":280.3913,"ARG_OF_PERICENTER":252.2911,"MEAN_ANOMALY":106.0698,"EPHEMERIS_TYPE":0,"CLASSIFICATION_TYPE":"U","NORAD_CAT_ID":39471,"ELEMENT_SET_NO":999,"REV_AT_EPOCH":10021,"BSTAR":0.00057825,"MEAN_MOTION_DOT":0.0001114,"MEAN_MOTION_DDOT":0}]
